{
"type": "FeatureCollection",
"features": [
{
  "type": "Feature",
  "id": "relation/14244595",
  "properties": {
    "boundary": "national_park",
    "name": "Батанічны помнік \"Сасна Веймутава\"",
    "name:be": "Батанічны помнік \"Сасна Веймутава\"",
    "name:ru": "Ботанический памятник \"Сосны Веймутова\"",
    "name:uk": "Ботанічний пам'ятник \"Сосни Веймутова\"",
    "start_date": "1994",
    "type": "boundary",
    "website": "http://www.gants-region.info/index/sosna_veimutova/0-1440",
    "id": "relation/14244595"
  },
  "geometry": {
    "type": "Polygon",
    "coordinates": [
      [
        [
          26.6962139,
          52.7587211
        ],
        [
          26.6963208,
          52.7586064
        ],
        [
          26.6974287,
          52.758907
        ],
        [
          26.6974261,
          52.7589391
        ],
        [
          26.6970915,
          52.7589378
        ],
        [
          26.6962139,
          52.7587211
        ]
      ]
    ]
  }
},
{
  "type": "Feature",
  "id": "node/10086523462",
  "properties": {
    "information": "board",
    "name": "Батанічны помнік \"Сасна Веймутава\"",
    "name:be": "Батанічны помнік \"Сасна Веймутава\"",
    "name:ru": "Ботанический памятник \"Сосны Веймутова\"",
    "name:uk": "Ботанічний пам'ятник \"Сосни Веймутова\"",
    "tourism": "information",
    "id": "node/10086523462"
  },
  "geometry": {
    "type": "Point",
    "coordinates": [
      26.6963979,
      52.758668
    ]
  }
}
]
}
